{"type": "FeatureCollection", "features": [ {"type": "Feature", "properties": {"norad_id": 62339, "name": "GPS BIII-7  (PRN 01)", "group": "gps-ops", "lat": -9.401963118769611, "lon": -24.768692605992058, "alt_km": 20151.925556706647, "timestamp": "2025-12-08T08:59:01.024633+00:00", "meta": {"OBJECT_NAME": "GPS BIII-7  (PRN 01)", "OBJECT_ID": "2024-242A", "EPOCH": "2025-12-07T03:32:57.244128", "MEAN_MOTION": 2.00567416, "ECCENTRICITY": 0.00118981, "INCLINATION": 54.925, "RA_OF_ASC_NODE": 341.9665, "ARG_OF_PERICENTER": 343.6843, "MEAN_ANOMALY": 199.2403, "EPHEMERIS_TYPE": 0, "CLASSIFICATION_TYPE": "U", "NORAD_CAT_ID": 62339, "ELEMENT_SET_NO": 999, "REV_AT_EPOCH": 740, "BSTAR": 0, "MEAN_MOTION_DOT": -8.5e-07, "MEAN_MOTION_DDOT": 0}, "tle": {"line1": "1 62339U 24242A   25341.14788477 -.00000085  00000+0  00000+0 0  9990", "line2": "2 62339  54.9250 341.9665 0011898 343.6843 199.2403  2.00567416  7402"}}, "geometry": {"type": "Point", "coordinates": [-24.768692605992058, -9.401963118769611]}}, {"type": "Feature", "properties": {"norad_id": 64202, "name": "GPS BIII-8  (PRN 21)", "group": "gps-ops", "lat": 1.579139970159046, "lon": -142.26625728559003, "alt_km": 20191.381015103638, "timestamp": "2025-12-08T08:59:01.024645+00:00", "meta": {"OBJECT_NAME": "GPS BIII-8  (PRN 21)", "OBJECT_ID": "2025-116A", "EPOCH": "2025-12-07T02:40:40.917216", "MEAN_MOTION": 2.00558359, "ECCENTRICITY": 0.00051354, "INCLINATION": 55.1017, "RA_OF_ASC_NODE": 38.8682, "ARG_OF_PERICENTER": 307.3727, "MEAN_ANOMALY": 39.0167, "EPHEMERIS_TYPE": 0, "CLASSIFICATION_TYPE": "U", "NORAD_CAT_ID": 64202, "ELEMENT_SET_NO": 999, "REV_AT_EPOCH": 401, "BSTAR": 0, "MEAN_MOTION_DOT": -7.4e-07, "MEAN_MOTION_DDOT": 0}, "tle": {"line1": "1 64202U 25116A   25341.11158469 -.00000074  00000+0  00000+0 0  9999", "line2": "2 64202  55.1017  38.8682 0005135 307.3727  39.0167  2.00558359  4011"}}, "geometry": {"type": "Point", "coordinates": [-142.26625728559003, 1.579139970159046]}}]}